CCSDS_OMM_VERS = 2.0
CREATION_DATE  = 
ORIGINATOR     = 

OBJECT_NAME    = STARLINK-36202
OBJECT_ID      = 2025-298V
CENTER_NAME    = EARTH
REF_FRAME      = TEME
TIME_SYSTEM    = UTC
MEAN_ELEMENT_THEORY = SGP/SGP4

EPOCH          = 2025-12-31T12:00:02.000160
MEAN_MOTION    = 15.57182438
ECCENTRICITY   = .0003447
INCLINATION    = 70.0000
RA_OF_ASC_NODE = 196.8159
ARG_OF_PERICENTER = 269.0097
MEAN_ANOMALY   = 73.3187

EPHEMERIS_TYPE = 0
CLASSIFICATION_TYPE = U
NORAD_CAT_ID   = 67094
ELEMENT_SET_NO = 999
REV_AT_EPOCH   = 399
BSTAR          = -.25514E-1
MEAN_MOTION_DOT = -.1671572E-1
MEAN_MOTION_DDOT = 0

CCSDS_OMM_VERS = 2.0
CREATION_DATE  = 
ORIGINATOR     = 

OBJECT_NAME    = STARLINK-36227
OBJECT_ID      = 2025-298W
CENTER_NAME    = EARTH
REF_FRAME      = TEME
TIME_SYSTEM    = UTC
MEAN_ELEMENT_THEORY = SGP/SGP4

EPOCH          = 2025-12-31T12:00:02.000160
MEAN_MOTION    = 15.57208620
ECCENTRICITY   = .0003674
INCLINATION    = 69.9993
RA_OF_ASC_NODE = 196.8130
ARG_OF_PERICENTER = 264.9981
MEAN_ANOMALY   = 79.2669

EPHEMERIS_TYPE = 0
CLASSIFICATION_TYPE = U
NORAD_CAT_ID   = 67095
ELEMENT_SET_NO = 999
REV_AT_EPOCH   = 393
BSTAR          = -.2639E-1
MEAN_MOTION_DOT = -.1724715E-1
MEAN_MOTION_DDOT = 0

CCSDS_OMM_VERS = 2.0
CREATION_DATE  = 
ORIGINATOR     = 

OBJECT_NAME    = STARLINK-36228
OBJECT_ID      = 2025-298X
CENTER_NAME    = EARTH
REF_FRAME      = TEME
TIME_SYSTEM    = UTC
MEAN_ELEMENT_THEORY = SGP/SGP4

EPOCH          = 2025-12-31T12:00:02.000160
MEAN_MOTION    = 15.57186363
ECCENTRICITY   = .0003761
INCLINATION    = 69.9990
RA_OF_ASC_NODE = 196.8114
ARG_OF_PERICENTER = 268.0284
MEAN_ANOMALY   = 78.1367

EPHEMERIS_TYPE = 0
CLASSIFICATION_TYPE = U
NORAD_CAT_ID   = 67096
ELEMENT_SET_NO = 999
REV_AT_EPOCH   = 393
BSTAR          = -.2564E-1
MEAN_MOTION_DOT = -.1679438E-1
MEAN_MOTION_DDOT = 0

CCSDS_OMM_VERS = 2.0
CREATION_DATE  = 
ORIGINATOR     = 

OBJECT_NAME    = STARLINK-36222
OBJECT_ID      = 2025-298Y
CENTER_NAME    = EARTH
REF_FRAME      = TEME
TIME_SYSTEM    = UTC
MEAN_ELEMENT_THEORY = SGP/SGP4

EPOCH          = 2025-12-31T12:00:02.000160
MEAN_MOTION    = 15.57177091
ECCENTRICITY   = .0003672
INCLINATION    = 69.9992
RA_OF_ASC_NODE = 196.8083
ARG_OF_PERICENTER = 267.7127
MEAN_ANOMALY   = 80.3834

EPHEMERIS_TYPE = 0
CLASSIFICATION_TYPE = U
NORAD_CAT_ID   = 67097
ELEMENT_SET_NO = 999
REV_AT_EPOCH   = 393
BSTAR          = -.2544E-1
MEAN_MOTION_DOT = -.1667086E-1
MEAN_MOTION_DDOT = 0

CCSDS_OMM_VERS = 2.0
CREATION_DATE  = 
ORIGINATOR     = 

OBJECT_NAME    = STARLINK-36205
OBJECT_ID      = 2025-298Z
CENTER_NAME    = EARTH
REF_FRAME      = TEME
TIME_SYSTEM    = UTC
MEAN_ELEMENT_THEORY = SGP/SGP4

EPOCH          = 2025-12-31T12:00:02.000160
MEAN_MOTION    = 15.57172387
ECCENTRICITY   = .0003509
INCLINATION    = 69.9993
RA_OF_ASC_NODE = 196.8061
ARG_OF_PERICENTER = 267.8606
MEAN_ANOMALY   = 82.1915

EPHEMERIS_TYPE = 0
CLASSIFICATION_TYPE = U
NORAD_CAT_ID   = 67098
ELEMENT_SET_NO = 999
REV_AT_EPOCH   = 399
BSTAR          = -.25579E-1
MEAN_MOTION_DOT = -.1674878E-1
MEAN_MOTION_DDOT = 0

CCSDS_OMM_VERS = 2.0
CREATION_DATE  = 
ORIGINATOR     = 

OBJECT_NAME    = STARLINK-36193
OBJECT_ID      = 2025-298AA
CENTER_NAME    = EARTH
REF_FRAME      = TEME
TIME_SYSTEM    = UTC
MEAN_ELEMENT_THEORY = SGP/SGP4

EPOCH          = 2025-12-31T12:00:02.000160
MEAN_MOTION    = 15.49662841
ECCENTRICITY   = .0003283
INCLINATION    = 69.9992
RA_OF_ASC_NODE = 196.9630
ARG_OF_PERICENTER = 264.7881
MEAN_ANOMALY   = 310.0835

EPHEMERIS_TYPE = 0
CLASSIFICATION_TYPE = U
NORAD_CAT_ID   = 67099
ELEMENT_SET_NO = 999
REV_AT_EPOCH   = 393
BSTAR          = -.35448E-1
MEAN_MOTION_DOT = -.1754874E-1
MEAN_MOTION_DDOT = 0

CCSDS_OMM_VERS = 2.0
CREATION_DATE  = 
ORIGINATOR     = 

OBJECT_NAME    = STARLINK-36215
OBJECT_ID      = 2025-298AB
CENTER_NAME    = EARTH
REF_FRAME      = TEME
TIME_SYSTEM    = UTC
MEAN_ELEMENT_THEORY = SGP/SGP4

EPOCH          = 2025-12-31T12:00:02.000160
MEAN_MOTION    = 15.57180116
ECCENTRICITY   = .0003482
INCLINATION    = 69.9993
RA_OF_ASC_NODE = 196.7990
ARG_OF_PERICENTER = 269.9467
MEAN_ANOMALY   = 85.8078

EPHEMERIS_TYPE = 0
CLASSIFICATION_TYPE = U
NORAD_CAT_ID   = 67100
ELEMENT_SET_NO = 999
REV_AT_EPOCH   = 399
BSTAR          = -.25519E-1
MEAN_MOTION_DOT = -.1671759E-1
MEAN_MOTION_DDOT = 0

CCSDS_OMM_VERS = 2.0
CREATION_DATE  = 
ORIGINATOR     = 

OBJECT_NAME    = STARLINK-36200
OBJECT_ID      = 2025-298AC
CENTER_NAME    = EARTH
REF_FRAME      = TEME
TIME_SYSTEM    = UTC
MEAN_ELEMENT_THEORY = SGP/SGP4

EPOCH          = 2025-12-31T12:00:02.000160
MEAN_MOTION    = 15.57173632
ECCENTRICITY   = .0003626
INCLINATION    = 69.9993
RA_OF_ASC_NODE = 196.8044
ARG_OF_PERICENTER = 267.4116
MEAN_ANOMALY   = 84.5330

EPHEMERIS_TYPE = 0
CLASSIFICATION_TYPE = U
NORAD_CAT_ID   = 67101
ELEMENT_SET_NO = 999
REV_AT_EPOCH   = 399
BSTAR          = -.2545E-1
MEAN_MOTION_DOT = -.1667441E-1
MEAN_MOTION_DDOT = 0

CCSDS_OMM_VERS = 2.0
CREATION_DATE  = 
ORIGINATOR     = 

OBJECT_NAME    = STARLINK-36255
OBJECT_ID      = 2025-299A
CENTER_NAME    = EARTH
REF_FRAME      = TEME
TIME_SYSTEM    = UTC
MEAN_ELEMENT_THEORY = SGP/SGP4

EPOCH          = 2025-12-31T12:00:02.000160
MEAN_MOTION    = 15.58072653
ECCENTRICITY   = .0001727
INCLINATION    = 42.9988
RA_OF_ASC_NODE = 202.3055
ARG_OF_PERICENTER = 257.7902
MEAN_ANOMALY   = 69.7796

EPHEMERIS_TYPE = 0
CLASSIFICATION_TYPE = U
NORAD_CAT_ID   = 67102
ELEMENT_SET_NO = 999
REV_AT_EPOCH   = 382
BSTAR          = -.27674E-1
MEAN_MOTION_DOT = -.1888854E-1
MEAN_MOTION_DDOT = 0

CCSDS_OMM_VERS = 2.0
CREATION_DATE  = 
ORIGINATOR     = 

OBJECT_NAME    = STARLINK-36256
OBJECT_ID      = 2025-299B
CENTER_NAME    = EARTH
REF_FRAME      = TEME
TIME_SYSTEM    = UTC
MEAN_ELEMENT_THEORY = SGP/SGP4

EPOCH          = 2025-12-31T12:00:02.000160
MEAN_MOTION    = 15.58097587
ECCENTRICITY   = .0001706
INCLINATION    = 42.9988
RA_OF_ASC_NODE = 202.3013
ARG_OF_PERICENTER = 259.3217
MEAN_ANOMALY   = 70.0283

EPHEMERIS_TYPE = 0
CLASSIFICATION_TYPE = U
NORAD_CAT_ID   = 67103
ELEMENT_SET_NO = 999
REV_AT_EPOCH   = 382
BSTAR          = -.27754E-1
MEAN_MOTION_DOT = -.1895254E-1
MEAN_MOTION_DDOT = 0

CCSDS_OMM_VERS = 2.0
CREATION_DATE  = 
ORIGINATOR     = 

OBJECT_NAME    = STARLINK-36258
OBJECT_ID      = 2025-299C
CENTER_NAME    = EARTH
REF_FRAME      = TEME
TIME_SYSTEM    = UTC
MEAN_ELEMENT_THEORY = SGP/SGP4

EPOCH          = 2025-12-31T12:00:02.000160
MEAN_MOTION    = 15.58111978
ECCENTRICITY   = .0001591
INCLINATION    = 42.9988
RA_OF_ASC_NODE = 202.2966
ARG_OF_PERICENTER = 256.0794
MEAN_ANOMALY   = 75.0883

EPHEMERIS_TYPE = 0
CLASSIFICATION_TYPE = U
NORAD_CAT_ID   = 67104
ELEMENT_SET_NO = 999
REV_AT_EPOCH   = 382
BSTAR          = -.27701E-1
MEAN_MOTION_DOT = -.1892932E-1
MEAN_MOTION_DDOT = 0

CCSDS_OMM_VERS = 2.0
CREATION_DATE  = 
ORIGINATOR     = 

OBJECT_NAME    = STARLINK-36261
OBJECT_ID      = 2025-299D
CENTER_NAME    = EARTH
REF_FRAME      = TEME
TIME_SYSTEM    = UTC
MEAN_ELEMENT_THEORY = SGP/SGP4

EPOCH          = 2025-12-31T12:00:02.000160
MEAN_MOTION    = 15.58135038
ECCENTRICITY   = .0001794
INCLINATION    = 42.9989
RA_OF_ASC_NODE = 202.2923
ARG_OF_PERICENTER = 260.0750
MEAN_ANOMALY   = 72.8553

EPHEMERIS_TYPE = 0
CLASSIFICATION_TYPE = U
NORAD_CAT_ID   = 67105
ELEMENT_SET_NO = 999
REV_AT_EPOCH   = 382
BSTAR          = -.27652E-1
MEAN_MOTION_DOT = -.1891554E-1
MEAN_MOTION_DDOT = 0

