STARLINK-36202          
1 67094U 25298V   25365.50002315 -.01671572  00000+0 -25514-1 0  9997
2 67094  70.0000 196.8159 0003447 269.0097  73.3187 15.57182438  3999
STARLINK-36227          
1 67095U 25298W   25365.50002315 -.01724715  00000+0 -26390-1 0  9999
2 67095  69.9993 196.8130 0003674 264.9981  79.2669 15.57208620  3931
STARLINK-36228          
1 67096U 25298X   25365.50002315 -.01679438  00000+0 -25640-1 0  9998
2 67096  69.9990 196.8114 0003761 268.0284  78.1367 15.57186363  3931
STARLINK-36222          
1 67097U 25298Y   25365.50002315 -.01667086  00000+0 -25440-1 0  9993
2 67097  69.9992 196.8083 0003672 267.7127  80.3834 15.57177091  3934
STARLINK-36205          
1 67098U 25298Z   25365.50002315 -.01674878  00000+0 -25579-1 0  9994
2 67098  69.9993 196.8061 0003509 267.8606  82.1915 15.57172387  3993
STARLINK-36193          
1 67099U 25298AA  25365.50002315 -.01754874  00000+0 -35448-1 0  9996
2 67099  69.9992 196.9630 0003283 264.7881 310.0835 15.49662841  3934
STARLINK-36215          
1 67100U 25298AB  25365.50002315 -.01671759  00000+0 -25519-1 0  9997
2 67100  69.9993 196.7990 0003482 269.9467  85.8078 15.57180116  3994
STARLINK-36200          
1 67101U 25298AC  25365.50002315 -.01667441  00000+0 -25450-1 0  9995
2 67101  69.9993 196.8044 0003626 267.4116  84.5330 15.57173632  3992
STARLINK-36255          
1 67102U 25299A   25365.50002315 -.01888854  00000+0 -27674-1 0  9990
2 67102  42.9988 202.3055 0001727 257.7902  69.7796 15.58072653  3823
STARLINK-36256          
1 67103U 25299B   25365.50002315 -.01895254  00000+0 -27754-1 0  9992
2 67103  42.9988 202.3013 0001706 259.3217  70.0283 15.58097587  3821
STARLINK-36258          
1 67104U 25299C   25365.50002315 -.01892932  00000+0 -27701-1 0  9995
2 67104  42.9988 202.2966 0001591 256.0794  75.0883 15.58111978  3826
STARLINK-36261          
1 67105U 25299D   25365.50002315 -.01891554  00000+0 -27652-1 0  9990
2 67105  42.9989 202.2923 0001794 260.0750  72.8553 15.58135038  3825
